STARLINK-2022           
1 47643U 21012Z   24258.49435045  .00030464  00000+0  20565-2 0  9991
2 47643  53.0545 321.1407 0001253  86.9975 273.1157 15.06377794198172
